NORAD_CAT_ID,OBJECT_NAME,OBJECT_TYPE,EPOCH,MEAN_MOTION,ECCENTRICITY,INCLINATION,RA_OF_ASC_NODE,ARG_OF_PERICENTER,MEAN_ANOMALY,BSTAR,MEAN_MOTION_DOT,MEAN_MOTION_DDOT,TLE_LINE0,TLE_LINE1,TLE_LINE2,SEMIMAJOR_AXIS,PERIOD,APOGEE,PERIGEE,DECAYED
52339.0,STARLINK-3792,PAYLOAD,2022-05-04 18:00:02,15.83483591,0.0001115,53.2172,52.407,54.4236,357.4675,-0.0042952,-0.00868342,0.0,0 STARLINK-3792,1 52339U 22045J   22124.75002315 -.00868342  00000-0 -42952-2 0  9996,2 52339  53.2172  52.4070 0001115  54.4236 357.4675 15.83483591  3315,6698.735,90.939,321.347,319.853,0.0
52339.0,STARLINK-3792,PAYLOAD,2022-05-05 14:00:01,15.8191509,0.0001091,53.2174,48.2249,64.8706,57.8034,-0.0046593999999999,-0.00873882,0.0,0 STARLINK-3792,1 52339U 22045J   22125.58334491 -.00873882  00000-0 -46594-2 0  9992,2 52339  53.2174  48.2249 0001091  64.8706  57.8034 15.81915090  3444,6703.1619999999975,91.029,325.759,324.296,0.0
52339.0,STARLINK-3792,PAYLOAD,2022-05-05 22:00:00,15.81287876,0.0001259,53.2176,46.5554,62.622,159.06799999999996,-0.004819,-0.00877328,0.0,0 STARLINK-3792,1 52339U 22045J   22125.91667824 -.00877328  00000-0 -48190-2 0  9991,2 52339  53.2176  46.5554 0001259  62.6220 159.0680 15.81287876  1476,6704.935,91.065,327.644,325.955,0.0
52339.0,STARLINK-3792,PAYLOAD,2022-05-06 08:00:01,15.80424843,0.0001068,53.2163,44.4715,75.0183,359.417,-0.0043791,-0.00775118,0.0,0 STARLINK-3792,1 52339U 22045J   22126.33334491 -.00775118  00000-0 -43791-2 0  9995,2 52339  53.2163  44.4715 0001068  75.0183 359.4170 15.80424843  3560,6707.375,91.115,329.957,328.524,0.0
52339.0,STARLINK-3792,PAYLOAD,2022-05-06 14:00:01,15.80027089,9.66e-05,53.2175,43.219,80.6825,336.7748,-0.0050849,-0.00873395,0.0,0 STARLINK-3792,1 52339U 22045J   22126.58334491 -.00873395  00000-0 -50849-2 0  9990,2 52339  53.2175  43.2190 0000966  80.6825 336.7748 15.80027089  1588,6708.501,91.138,331.014,329.718,0.0
52339.0,STARLINK-3792,PAYLOAD,2022-05-06 22:00:00,15.79398787,0.0001234,53.2177,41.5543,64.9887,89.2157,-0.005242,-0.0087469,0.0,0 STARLINK-3792,1 52339U 22045J   22126.91667824 -.00874690  00000-0 -52420-2 0  9992,2 52339  53.2177  41.5543 0001234  64.9887  89.2157 15.79398787  3653,6710.28,91.174,332.973,331.31699999999995,0.0
52339.0,STARLINK-3792,PAYLOAD,2022-05-07 14:00:01,15.78139241,9.54e-05,53.2173,38.227,83.6235,261.8105,-0.0055401,-0.00872946,0.0,0 STARLINK-3792,1 52339U 22045J   22127.58334491 -.00872946  00000-0 -55401-2 0  9991,2 52339  53.2173  38.2270 0000954  83.6235 261.8105 15.78139241  1748,6713.85,91.247,336.355,335.074,0.0
52339.0,STARLINK-3792,PAYLOAD,2022-05-07 20:00:01,15.77671141,0.0001029,53.2175,36.9816,85.2038,241.1587,-0.0056986,-0.00878558,0.0,0 STARLINK-3792,1 52339U 22045J   22127.83334491 -.00878558  00000-0 -56986-2 0  9993,2 52339  53.2175  36.9816 0001029  85.2038 241.1587 15.77671141  3795,6715.178000000001,91.274,337.7340000000001,336.352,0.0
52339.0,STARLINK-3792,PAYLOAD,2022-05-07 22:00:00,15.775118,0.0001066,53.2174,36.5673,71.8735,8.0384,-0.0057179,-0.00875558,0.0,0 STARLINK-3792,1 52339U 22045J   22127.91667824 -.00875558  00000-0 -57179-2 0  9993,2 52339  53.2174  36.5673 0001066  71.8735   8.0384 15.77511800  1795,6715.63,91.283,338.211,336.779,0.0
52339.0,STARLINK-3792,PAYLOAD,2022-05-08 14:00:01,15.76251754,0.0001078,53.2175,33.2489,89.0367,177.5674,-0.0060274,-0.00872665,0.0,0 STARLINK-3792,1 52339U 22045J   22128.58334491 -.00872665  00000-0 -60274-2 0  9994,2 52339  53.2175  33.2489 0001078  89.0367 177.5674 15.76251754  1893,6719.209,91.356,341.798,340.349,0.0
52339.0,STARLINK-3792,PAYLOAD,2022-05-08 20:00:01,15.7578126,0.0001156,53.2178,32.0073,86.9441,158.8884,-0.006172,-0.00874924,0.0,0 STARLINK-3792,1 52339U 22045J   22128.83334491 -.00874924  00000-0 -61720-2 0  9999,2 52339  53.2178  32.0073 0001156  86.9441 158.8884 15.75781260  3951,6720.545999999999,91.383,343.1880000000001,341.634,0.0
52339.0,STARLINK-3792,PAYLOAD,2022-05-08 22:00:00,15.75624677,9.940000000000004e-05,53.2177,31.594,83.1308,275.6834,-0.0062244,-0.00876083,0.0,0 STARLINK-3792,1 52339U 22045J   22128.91667824 -.00876083  00000-0 -62244-2 0  9997,2 52339  53.2177  31.5940 0000994  83.1308 275.6834 15.75624677  1956,6720.991,91.392,343.524,342.1880000000001,0.0
52339.0,STARLINK-3792,PAYLOAD,2022-05-09 14:00:01,15.74364424,0.000114,53.2171,28.2847,82.6351,98.3994,-0.0065537999999999,-0.00873113,0.0,0 STARLINK-3792,1 52339U 22045J   22129.58335648 -.00873113  00000-0 -65538-2 0  9997,2 52339  53.2171  28.2847 0001140  82.6351  98.3994 15.74364424  2054,6724.5769999999975,91.465,347.209,345.676,0.0
52339.0,STARLINK-3792,PAYLOAD,2022-05-09 22:00:00,15.73609436,0.0001248,53.2173,26.6346,83.7458,187.1883,-0.0040474,-0.00542935,0.0,0 STARLINK-3792,1 52339U 22045J   22129.91667824 -.00542935  00000-0 -40474-2 0  9995,2 52339  53.2173  26.6346 0001248  83.7458 187.1883 15.73609436  2116,6726.728,91.509,349.43300000000005,347.754,0.0
52339.0,STARLINK-3792,PAYLOAD,2022-05-10 00:00:00,15.73398195,0.000108,53.2173,26.2224,86.8316,296.4744,-0.0020988,-0.00287749,0.0,0 STARLINK-3792,1 52339U 22045J   22130.00001157 -.00287749  00000-0 -20988-2 0  9995,2 52339  53.2173  26.2224 0001080  86.8316 296.4744 15.73398195  4139,6727.33,91.522,349.922,348.469,0.0
52339.0,STARLINK-3792,PAYLOAD,2022-05-10 08:00:01,15.73185176,3.83e-05,53.2144,24.5746,80.1166,32.2424,0.00012265,0.00016617,0.0,0 STARLINK-3792,1 52339U 22045J   22130.33334491  .00016617  00000-0  12265-3 0  9993,2 52339  53.2144  24.5746 0000383  80.1166  32.2424 15.73185176  4192,6727.937,91.534,350.06,349.545,0.0
52339.0,STARLINK-3792,PAYLOAD,2022-05-10 14:00:01,15.73204929,5.41e-05,53.2155,23.335,99.6462,349.4,3.3467e-06,-1.49e-06,0.0,0 STARLINK-3792,1 52339U 22045J   22130.58334491 -.00000149  00000-0  33467-5 0  9993,2 52339  53.2155  23.3350 0000541  99.6462 349.4000 15.73204929  2214,6727.880999999999,91.533,350.11,349.38199999999995,0.0
52339.0,STARLINK-3792,PAYLOAD,2022-05-10 18:00:00,15.7322035,3.85e-05,53.2141,22.5127,110.5295,202.9666,0.00027778,0.00038578,0.0,0 STARLINK-3792,1 52339U 22045J   22130.75001157  .00038578  00000-0  27778-3 0  9994,2 52339  53.2141  22.5127 0000385 110.5295 202.9666 15.73220350  4258,6727.837,91.532,349.961,349.4430000000001,0.0
52339.0,STARLINK-3792,PAYLOAD,2022-05-11 22:00:00,15.73192029,8.36e-05,53.2136,16.7403,89.4565,355.462,0.00015474,0.00021144,0.0,0 STARLINK-3792,1 52339U 22045J   22131.91667824  .00021144  00000-0  15474-3 0  9993,2 52339  53.2136  16.7403 0000836  89.4565 355.4620 15.73192029  4445,6727.918000000002,91.534,350.345,349.22,0.0
52339.0,STARLINK-3792,PAYLOAD,2022-05-12 14:00:01,15.73227303,0.0001063,53.2139,13.4392,96.9457,165.8801,-0.00027,-0.00038383,0.0,0 STARLINK-3792,1 52339U 22045J   22132.58334491 -.00038383  00000-0 -27000-3 0  9991,2 52339  53.2139  13.4392 0001063  96.9457 165.8801 15.73227303  1305,6727.816999999999,91.532,350.397,348.967,0.0
52339.0,STARLINK-3792,PAYLOAD,2022-05-12 20:00:01,15.7326891,0.000115,53.214,12.2033,91.7855,147.7725,-0.000478,-0.00067365,0.0,0 STARLINK-3792,1 52339U 22045J   22132.83334491 -.00067365  00000-0 -47800-3 0  9991,2 52339  53.2140  12.2033 0001150  91.7855 147.7725 15.73268910  4584,6727.699000000001,91.529,350.337,348.79,0.0
52339.0,STARLINK-3792,PAYLOAD,2022-05-12 22:00:00,15.73254058,0.000115,53.2139,11.7914,87.4893,264.3213,-0.00043599,-0.00061503,0.0,0 STARLINK-3792,1 52339U 22045J   22132.91667824 -.00061503  00000-0 -43599-3 0  9998,2 52339  53.2139  11.7914 0001150  87.4893 264.3213 15.73254058  1301,6727.741,91.53,350.38,348.832,0.0
52339.0,STARLINK-3792,PAYLOAD,2022-05-13 14:00:01,15.73155966,7.950000000000001e-05,53.2133,8.4904,106.5269,63.1743,0.00036198,0.00050391,0.0,0 STARLINK-3792,1 52339U 22045J   22133.58334491  .00050391  00000-0  36198-3 0  9991,2 52339  53.2133   8.4904 0000795 106.5269  63.1743 15.73155966  1302,6728.021,91.536,350.421,349.351,0.0
52339.0,STARLINK-3792,PAYLOAD,2022-05-13 22:00:00,15.73186354,9.22e-05,53.2139,6.8429,87.8947,170.7087,-0.00060355,-0.00084426,0.0,0 STARLINK-3792,1 52339U 22045J   22133.91667824 -.00084426  00000-0 -60355-3 0  9997,2 52339  53.2139   6.8429 0000922  87.8947 170.7087 15.73186354  4751,6727.934,91.534,350.4190000000001,349.17900000000014,0.0
52339.0,STARLINK-3792,PAYLOAD,2022-05-14 06:00:00,15.73158336,8.66e-05,53.2135,5.1932,87.5459,259.9311,0.00022212,0.00030611,0.0,0 STARLINK-3792,1 52339U 22045J   22134.25001157  .00030611  00000-0  22212-3 0  9991,2 52339  53.2135   5.1932 0000866  87.5459 259.9311 15.73158336  4805,6728.014,91.536,350.462,349.296,0.0
52339.0,STARLINK-3792,PAYLOAD,2022-05-14 14:00:01,15.73182996,9.31e-05,53.2138,3.5419,100.81,335.5761,0.00072711,0.00102604,0.0,0 STARLINK-3792,1 52339U 22045J   22134.58334491  .00102604  00000-0  72711-3 0  9998,2 52339  53.2138   3.5419 0000931 100.8100 335.5761 15.73182996  4860,6727.944,91.534,350.435,349.182,0.0
52339.0,STARLINK-3792,PAYLOAD,2022-05-14 22:00:00,15.73277976,0.0001074,53.2136,1.8941,84.6353,80.6978,-0.00035891,-0.00050854,0.0,0 STARLINK-3792,1 52339U 22045J   22134.91667824 -.00050854  00000-0 -35891-3 0  9993,2 52339  53.2136   1.8941 0001074  84.6353  80.6978 15.73277976  1304,6727.6730000000025,91.529,350.26,348.815,0.0
52339.0,STARLINK-3792,PAYLOAD,2022-05-15 06:00:00,15.72971516,0.0001036,53.2159,0.2416,88.8853,165.4604,0.0013884,0.00196933,0.0,0 STARLINK-3792,1 52339U 22045J   22135.25001157  .00196933  00000-0  13884-2 0  9996,2 52339  53.2159   0.2416 0001036  88.8853 165.4604 15.72971516  4961,6728.547,91.546,351.1090000000001,349.715,0.0
52339.0,STARLINK-3792,PAYLOAD,2022-05-15 14:00:01,15.73304647,0.0001240999999999,53.2146,358.5911,94.7932,248.5118,-0.0012792,-0.00177208,0.0,0 STARLINK-3792,1 52339U 22045J   22135.58335648 -.00177208  00000-0 -12792-2 0  9990,2 52339  53.2146 358.5911 0001241  94.7932 248.5118 15.73304647  5014,6727.597,91.527,350.297,348.62699999999984,0.0
